GSAT0101 (GALILEO-PFM)  
1 37846U 11060A   24287.04023665 -.00000079  00000+0  00000+0 0  9990
2 37846  57.1238 358.3493 0000606 302.5270  57.5211  1.70475666 80687
GSAT0102 (GALILEO-FM2)  
1 37847U 11060B   24287.54490263 -.00000080  00000+0  00000+0 0  9990
2 37847  57.1243 358.3358 0002423 299.1624  56.0798  1.70475220 80698
GSAT0103 (GALILEO-FM3)  
1 38857U 12055A   24287.66630368  .00000077  00000+0  00000+0 0  9997
2 38857  55.4601 118.3477 0001891 258.2480 101.8123  1.70473530 74583
GSAT0201 (GALILEO 5)    
1 40128U 14050A   24288.20446139 -.00000022  00000+0  00000+0 0  9991
2 40128  49.5373 298.2722 1614111 155.9029 212.5940  1.85519405 68922
GSAT0202 (GALILEO 6)    
1 40129U 14050B   24287.92332259 -.00000019  00000+0  00000+0 0  9993
2 40129  49.5540 297.3620 1613295 156.6860 211.5531  1.85520171 69141
GSAT0203 (GALILEO 7)    
1 40544U 15017A   24285.05943433 -.00000078  00000+0  00000+0 0  9997
2 40544  56.9187 358.3212 0005067 246.7036 113.2970  1.70476162 58735
GSAT0204 (GALILEO 8)    
1 40545U 15017B   24282.96761633 -.00000078  00000+0  00000+0 0  9995
2 40545  56.9252 358.3942 0004824 233.0544 126.9567  1.70475838 21745
GSAT0205 (GALILEO 9)    
1 40889U 15045A   24287.42842273  .00000005  00000+0  00000+0 0  9992
2 40889  55.1692 238.5035 0004160  17.8666 342.1198  1.70472900 56582
GSAT0206 (GALILEO 10)   
1 40890U 15045B   24288.23564749 -.00000001  00000+0  00000+0 0  9990
2 40890  55.1678 238.4765 0002463 357.4034   2.5630  1.70472960 56622
GSAT0209 (GALILEO 12)   
1 41174U 15079A   24286.05915716  .00000071  00000+0  00000+0 0  9991
2 41174  55.4777 118.1022 0002295 357.1257   2.9506  1.70474102 54329
GSAT0208 (GALILEO 11)   
1 41175U 15079B   24286.86558352  .00000075  00000+0  00000+0 0  9994
2 41175  55.4770 118.0777 0001852  11.2691 348.8148  1.70473983 54754
GSAT0211 (GALILEO 14)   
1 41549U 16030A   24287.57478068  .00000004  00000+0  00000+0 0  9993
2 41549  55.3160 238.5188 0003528 331.8458  28.1060  1.70472969 52245
GSAT0210 (GALILEO 13)   
1 41550U 16030B   24288.41945134 -.00000002  00000+0  00000+0 0  9991
2 41550  55.3155 238.4938 0003087 247.1751 112.7591  1.70473348 52250
GSAT0207 (GALILEO 15)   
1 41859U 16069A   24286.93929620  .00000074  00000+0  00000+0 0  9990
2 41859  55.1438 118.0507 0001883 326.7633  33.3048  1.70474072 49182
GSAT0212 (GALILEO 16)   
1 41860U 16069B   24286.79346465  .00000073  00000+0  00000+0 0  9995
2 41860  55.1415 118.0509 0002252  33.7896 326.3043  1.70474255 49215
GSAT0213 (GALILEO 17)   
1 41861U 16069C   24285.40208449  .00000067  00000+0  00000+0 0  9995
2 41861  55.1429 118.0965 0001698 277.3925  82.6638  1.70474619 49057
GSAT0214 (GALILEO 18)   
1 41862U 16069D   24286.13403036  .00000070  00000+0  00000+0 0  9990
2 41862  55.1423 118.0696 0000769 287.1206  72.9488  1.70474273 49198
GSAT0215 (GALILEO 19)   
1 43055U 17079A   24286.62332648  .00000011  00000+0  00000+0 0  9997
2 43055  55.2942 238.3651 0002707 280.1877  79.7579  1.70473712 42544
GSAT0216 (GALILEO 20)   
1 43056U 17079B   24287.50151351  .00000004  00000+0  00000+0 0  9998
2 43056  55.2940 238.3408 0004175 285.4267  74.4986  1.70473817 42578
GSAT0217 (GALILEO 21)   
1 43057U 17079C   24286.54886914  .00000012  00000+0  00000+0 0  9991
2 43057  55.2924 238.3656 0003699 300.3563  59.5837  1.70473799 42547
GSAT0218 (GALILEO 22)   
1 43058U 17079D   24287.35550338  .00000005  00000+0  00000+0 0  9992
2 43058  55.2924 238.3410 0004615 280.7680  79.1522  1.70473784 42583
GSAT0221 (GALILEO 25)   
1 43564U 18060A   24287.25674696 -.00000079  00000+0  00000+0 0  9990
2 43564  57.2987 358.2916 0004927 263.1535  96.8449  1.70475978 38743
GSAT0222 (GALILEO 26)   
1 43565U 18060B   24286.30226412 -.00000078  00000+0  00000+0 0  9994
2 43565  57.3024 358.3194 0005047 238.0111 121.9937  1.70475735 38766
GSAT0219 (GALILEO 23)   
1 43566U 18060C   24287.69714052 -.00000080  00000+0  00000+0 0  9993
2 43566  57.3014 358.2836 0004073 266.8663  93.1420  1.70475960 38764
GSAT0220 (GALILEO 24)   
1 43567U 18060D   24288.50443247 -.00000082  00000+0  00000+0 0  9992
2 43567  57.3011 358.2626 0004062 261.6775  98.3324  1.70475752 38763
GSAT0223 (GALILEO 27)   
1 49809U 21116A   24287.77631583 -.00000080  00000+0  00000+0 0  9991
2 49809  57.2917 358.1759 0004069 216.2576 147.3986  1.70475865 17750
GSAT0224 (GALILEO 28)   
1 49810U 21116B   24288.17644205 -.00000081  00000+0  00000+0 0  9994
2 49810  57.2922 358.1636 0003316 211.1940 150.5526  1.70475978 17790
GSAT0225 (GALILEO 29)   
1 59598U 24079A   24287.89855656  .00000076  00000+0  00000+0 0  9994
2 59598  54.7606 118.1864 0002595 161.3705  20.6901  1.70474274  2892
GSAT0227 (GALILEO 30)   
1 59600U 24079C   24287.19878541  .00000074  00000+0  00000+0 0  9997
2 59600  54.7555 118.2061 0003729 111.1001 249.0205  1.70474366  2932
GSAT0232 (GALILEO 32)   
1 61182U 24167A   24287.14856881  .00000007  00000+0  00000+0 0  9997
2 61182  55.4046 238.1043 0016903 273.6477  86.1334  1.73176910   437
GSAT0226 (GALILEO 31)   
1 61183U 24167B   24287.36375069  .00000005  00000+0  00000+0 0  9994
2 61183  55.4015 238.1105 0032812  98.0137 262.3318  1.71381459   425
